[{"OBJECT_NAME":"STARLINK-30849","OBJECT_ID":"2023-171R","EPOCH":"2026-03-09T22:00:01.999584","MEAN_MOTION":15.23663068,"ECCENTRICITY":0.00015687,"INCLINATION":43.0007,"RA_OF_ASC_NODE":283.6405,"ARG_OF_PERICENTER":288.773,"MEAN_ANOMALY":42.2251,"EPHEMERIS_TYPE":0,"CLASSIFICATION_TYPE":"U","NORAD_CAT_ID":58245,"ELEMENT_SET_NO":999,"REV_AT_EPOCH":577,"BSTAR":0.048301601,"MEAN_MOTION_DOT":0.01296338,"MEAN_MOTION_DDOT":0},{"OBJECT_NAME":"TRANSPORTER-10 OBJECT AD","OBJECT_ID":"2024-043AD","EPOCH":"2026-03-09T20:38:52.416960","MEAN_MOTION":15.34189901,"ECCENTRICITY":0.00089841,"INCLINATION":97.547,"RA_OF_ASC_NODE":207.3753,"ARG_OF_PERICENTER":221.4908,"MEAN_ANOMALY":138.5653,"EPHEMERIS_TYPE":0,"CLASSIFICATION_TYPE":"U","NORAD_CAT_ID":59125,"ELEMENT_SET_NO":999,"REV_AT_EPOCH":11202,"BSTAR":0.00036310552,"MEAN_MOTION_DOT":0.00011954,"MEAN_MOTION_DDOT":0}]
